OBJECT_NAME,OBJECT_ID,EPOCH,MEAN_MOTION,ECCENTRICITY,INCLINATION,RA_OF_ASC_NODE,ARG_OF_PERICENTER,MEAN_ANOMALY,EPHEMERIS_TYPE,CLASSIFICATION_TYPE,NORAD_CAT_ID,ELEMENT_SET_NO,REV_AT_EPOCH,BSTAR,MEAN_MOTION_DOT,MEAN_MOTION_DDOT
SPACEMOBILE-004,2024-163E,2026-07-21T06:34:01.498944,15.20649512,.00051579,52.9720,152.1723,251.3714,108.6720,0,U,61049,999,10295,.6885481E-3,.15015E-3,0
CZ-8A R/B,2025-231K,2026-07-20T09:10:27.929280,14.30163075,.0116538,50.0032,258.0904,340.8790,18.7770,0,U,66004,999,3969,.23312E-4,-.1E-5,0
SZ-21 MODULE,2025-246C,2026-07-21T01:51:44.850816,15.79230958,.00093435,41.4721,95.7888,257.2941,102.6860,0,U,66515,999,3909,.22380535E-3,.41374E-3,0
SPACEMOBILE-006,2025-309A,2026-07-21T04:47:25.938528,15.18677771,.00095043,52.9948,175.8266,235.7559,124.2535,0,U,67232,999,3176,.12567808E-3,.2319E-4,0
SPACEMOBILE-008,2026-139A,2026-07-21T02:22:09.287904,15.12808741,.00052767,52.9952,108.6049,70.5664,289.5897,0,U,69589,999,511,.36735602E-4,.351E-5,0
SPACEMOBILE-009,2026-139B,2026-07-21T00:50:25.893024,15.12707563,.00055541,52.9943,108.9136,66.6900,293.4675,0,U,69590,999,510,.82097609E-4,.1153E-4,0
SPACEMOBILE-010,2026-139C,2026-07-21T00:55:49.493856,15.12544399,.0005545,52.9949,108.9399,59.2902,300.8635,0,U,69591,999,511,.78951674E-4,.1092E-4,0
