SPACEMOBILE-004         
1 61049U 24163E   26202.27362846  .00015015  00000+0  68855-3 0  9992
2 61049  52.9720 152.1723 0005157 251.3714 108.6720 15.20649512102955
CZ-8A R/B               
1 66004U 25231K   26201.38226770 -.00000100  00000+0  23312-4 0  9991
2 66004  50.0032 258.0904 0116538 340.8790  18.7770 14.30163075 39698
SZ-21 MODULE            
1 66515U 25246C   26202.07760244  .00041374  00000+0  22381-3 0  9991
2 66515  41.4721  95.7888 0009343 257.2941 102.6860 15.79230958 39091
SPACEMOBILE-006         
1 67232U 25309A   26202.19960577  .00002319  00000+0  12568-3 0  9994
2 67232  52.9948 175.8266 0009504 235.7559 124.2535 15.18677771 31767
SPACEMOBILE-008         
1 69589U 26139A   26202.09871861  .00000351  00000+0  36736-4 0  9997
2 69589  52.9952 108.6049 0005276  70.5664 289.5897 15.12808741  5119
SPACEMOBILE-009         
1 69590U 26139B   26202.03502191  .00001153  00000+0  82098-4 0  9993
2 69590  52.9943 108.9136 0005554  66.6900 293.4675 15.12707563  5106
SPACEMOBILE-010         
1 69591U 26139C   26202.03876729  .00001092  00000+0  78952-4 0  9991
2 69591  52.9949 108.9399 0005545  59.2902 300.8635 15.12544399  5110
